OBJECT_NAME,OBJECT_ID,EPOCH,MEAN_MOTION,ECCENTRICITY,INCLINATION,RA_OF_ASC_NODE,ARG_OF_PERICENTER,MEAN_ANOMALY,EPHEMERIS_TYPE,CLASSIFICATION_TYPE,NORAD_CAT_ID,ELEMENT_SET_NO,REV_AT_EPOCH,BSTAR,MEAN_MOTION_DOT,MEAN_MOTION_DDOT
CBERS 4A,2019-093E,2026-06-09T10:59:37.997952,14.81624316,.00014541,97.7494,227.9407,151.3784,208.7510,0,U,44883,999,34993,.66441037E-4,.472E-5,0
WEILAI 1R,2019-093F,2026-06-09T22:04:26.566752,15.00579616,.0017912,97.7843,250.7953,58.0432,302.2530,0,U,44884,999,35133,.24835689E-3,.3084E-4,0
FLORIPASAT-1,2019-093G,2026-06-09T23:20:51.908928,15.03800778,.00135016,97.7916,255.1519,94.1377,266.1391,0,U,44885,999,35156,.26156941E-3,.3538E-4,0
SHUNTIAN,2019-093H,2026-06-09T23:31:30.321120,14.95119393,.00130573,97.7996,249.1775,89.9746,270.2970,0,U,44886,999,35110,.19845069E-3,.2121E-4,0
ELEKTRO-L 3,2019-095A,2026-06-09T22:33:39.232224,1.00272335,.0001368,0.2371,81.3075,353.9512,237.4175,0,U,44903,999,2363,0,-.79E-6,0
GONETS-M 14,2019-096A,2026-06-09T21:12:43.735392,12.42869627,.00131853,82.5228,89.1678,163.7341,196.4164,0,U,44905,999,29277,-.35813015E-4,.5E-7,0
GONETS-M 15,2019-096B,2026-06-09T21:55:04.528704,12.42871118,.00145851,82.5248,89.6099,187.6654,172.4205,0,U,44906,999,29274,-.19131129E-3,-.17E-6,0
GONETS-M 16,2019-096C,2026-06-09T22:33:00.278784,12.42891504,.00096482,82.5194,88.5494,232.1523,127.8684,0,U,44907,999,29273,-.7730575E-5,.9E-7,0
RS-44 & BREEZE-KM R/B,2019-096E,2026-06-09T19:29:59.135136,12.79748665,.02178354,82.5218,344.6065,161.3634,199.5605,0,U,44909,999,30140,.93008389E-4,.35E-6,0
JILIN-1 KUANFU 01,2020-003A,2026-06-09T19:13:14.589984,15.10685196,.00088395,97.5030,234.9004,336.7955,23.2874,0,U,45016,999,35421,.1547996E-3,.2501E-4,0
XINGYUN-2 01,2020-028A,2026-06-09T22:15:33.196320,15.11775761,.00078332,97.4867,153.4717,221.5509,138.5127,0,U,45602,999,33374,.13146603E-3,.218E-4,0
XINGYUN-2 02,2020-028B,2026-06-09T21:42:55.132128,15.11505211,.00095118,97.5072,167.0242,302.8447,57.1867,0,U,45603,999,33373,.84671805E-4,.1371E-4,0
HAIYANG-1D,2020-036A,2026-06-09T22:14:23.449056,14.34170957,.00029902,98.4550,102.7641,144.9220,215.2162,0,U,45721,999,31393,.30959773E-4,.44E-6,0
M2 PATHFINDER,2020-037E,2026-06-09T11:10:34.006368,15.04644400,.00117577,97.8161,351.6108,171.8469,188.2950,0,U,45727,999,32433,.17035879E-3,.2333E-4,0
GAOFEN DUOMO (GFDM),2020-042A,2026-06-09T22:59:30.619392,14.76870270,.00124733,97.7748,221.1068,95.2291,265.0343,0,U,45856,999,31994,.83648128E-4,.539E-5,0
ZIYUAN 3-03 (ZY 3-03),2020-051A,2026-06-09T22:47:31.356672,15.21471784,.00039859,97.2835,228.9090,352.3686,7.7489,0,U,45939,999,32624,.13397299E-3,.2945E-4,0
NEMO-HD,2020-061F,2026-06-09T22:31:14.493216,15.44448780,.00025229,97.1926,222.9649,88.6251,271.5287,0,U,46277,999,32086,.2313082E-3,.1062E-3,0
NAPA-1,2020-061BA,2026-06-09T22:46:37.398144,15.67032129,.0001279,97.2471,234.8955,165.2213,194.9085,0,U,46320,999,32060,.62422367E-3,.66667E-3,0
JILIN-1 GAOFEN 3E,2020-065D,2026-06-09T19:06:46.463904,15.62750157,.001243,97.2257,213.2385,180.3205,179.8048,0,U,46457,999,31860,.67382572E-3,.60945E-3,0
JILIN-1 GAOFEN 3F,2020-065E,2026-06-09T19:24:35.691552,15.60155302,.00140588,97.2213,210.6215,169.5119,190.6434,0,U,46458,999,31855,.654519E-3,.53575E-3,0
JILIN-1 GAOFEN 3G,2020-065F,2026-06-09T16:38:19.195008,15.69876406,.00099171,97.2284,217.1861,88.7613,271.4786,0,U,46459,999,31876,.73849151E-3,.89049E-3,0
JILIN-1 GAOFEN 3H,2020-065G,2026-06-09T20:10:31.772064,15.66724316,.00046345,97.2227,213.7092,29.6056,330.5467,0,U,46460,999,31873,.6973699E-3,.73672E-3,0
HAIYANG-2C,2020-066A,2026-06-09T22:28:17.319648,13.83374679,.00091974,65.9968,233.3369,238.3369,121.6803,0,U,46469,999,28849,-.4055901E-5,-.86E-6,0
HJ-2A,2020-067A,2026-06-09T00:47:30.986592,14.76600903,.00022126,97.8822,238.5982,312.3940,47.7082,0,U,46478,999,30705,.50437409E-4,.302E-5,0
HJ-2B,2020-067B,2026-06-09T22:49:33.305088,14.76548906,.00011632,97.8885,240.5101,93.0422,267.0921,0,U,46479,999,30719,.72518253E-4,.456E-5,0
GONETS-M 17,2020-068A,2026-06-09T21:13:08.016384,12.42872933,.00233294,82.4996,352.0471,52.7274,307.5929,0,U,46486,999,25825,.41712524E-3,.68E-6,0
GONETS-M 18,2020-068B,2026-06-09T22:16:43.032576,12.42873011,.00205788,82.4950,351.1403,49.3302,310.9562,0,U,46487,999,25824,.42517188E-3,.69E-6,0
