CBERS 4A                
1 44883U 19093E   26160.45807868  .00000472  00000+0  66441-4 0  9997
2 44883  97.7494 227.9407 0001454 151.3784 208.7510 14.81624316349930
WEILAI 1R               
1 44884U 19093F   26160.91975193  .00003084  00000+0  24836-3 0  9999
2 44884  97.7843 250.7953 0017912  58.0432 302.2530 15.00579616351331
FLORIPASAT-1            
1 44885U 19093G   26160.97282302  .00003538  00000+0  26157-3 0  9991
2 44885  97.7916 255.1519 0013501  94.1377 266.1391 15.03800778351566
SHUNTIAN                
1 44886U 19093H   26160.98021205  .00002121  00000+0  19845-3 0  9999
2 44886  97.7996 249.1775 0013057  89.9746 270.2970 14.95119393351105
ELEKTRO-L 3             
1 44903U 19095A   26160.94003741 -.00000079  00000+0  00000+0 0  9992
2 44903   0.2371  81.3075 0001368 353.9512 237.4175  1.00272335 23631
GONETS-M 14             
1 44905U 19096A   26160.88383953  .00000005  00000+0 -35813-4 0  9998
2 44905  82.5228  89.1678 0013185 163.7341 196.4164 12.42869627292778
GONETS-M 15             
1 44906U 19096B   26160.91324686 -.00000017  00000+0 -19131-3 0  9999
2 44906  82.5248  89.6099 0014585 187.6654 172.4205 12.42871118292745
GONETS-M 16             
1 44907U 19096C   26160.93958656  .00000009  00000+0 -77306-5 0  9992
2 44907  82.5194  88.5494 0009648 232.1523 127.8684 12.42891504292733
RS-44 & BREEZE-KM R/B   
1 44909U 19096E   26160.81248999  .00000035  00000+0  93008-4 0  9997
2 44909  82.5218 344.6065 0217835 161.3634 199.5605 12.79748665301400
JILIN-1 KUANFU 01       
1 45016U 20003A   26160.80086331  .00002501  00000+0  15480-3 0  9993
2 45016  97.5030 234.9004 0008839 336.7955  23.2874 15.10685196354213
XINGYUN-2 01            
1 45602U 20028A   26160.92746755  .00002180  00000+0  13147-3 0  9998
2 45602  97.4867 153.4717 0007833 221.5509 138.5127 15.11775761333741
XINGYUN-2 02            
1 45603U 20028B   26160.90480477  .00001371  00000+0  84672-4 0  9996
2 45603  97.5072 167.0242 0009511 302.8447  57.1867 15.11505211333731
HAIYANG-1D              
1 45721U 20036A   26160.92666029  .00000044  00000+0  30960-4 0  9994
2 45721  98.4550 102.7641 0002990 144.9220 215.2162 14.34170957313934
M2 PATHFINDER           
1 45727U 20037E   26160.46567137  .00002333  00000+0  17036-3 0  9991
2 45727  97.8161 351.6108 0011757 171.8469 188.2950 15.04644400324336
GAOFEN DUOMO (GFDM)     
1 45856U 20042A   26160.95799328  .00000539  00000+0  83648-4 0  9992
2 45856  97.7748 221.1068 0012473  95.2291 265.0343 14.76870270319948
ZIYUAN 3-03 (ZY 3-03)   
1 45939U 20051A   26160.94966848  .00002945  00000+0  13397-3 0  9992
2 45939  97.2835 228.9090 0003985 352.3686   7.7489 15.21471784326246
NEMO-HD                 
1 46277U 20061F   26160.93836219  .00010620  00000+0  23131-3 0  9992
2 46277  97.1926 222.9649 0002522  88.6251 271.5287 15.44448780320863
NAPA-1                  
1 46320U 20061BA  26160.94904396  .00066667  00000+0  62422-3 0  9992
2 46320  97.2471 234.8955 0001279 165.2213 194.9085 15.67032129320605
JILIN-1 GAOFEN 3E       
1 46457U 20065D   26160.79637111  .00060945  00000+0  67383-3 0  9992
2 46457  97.2257 213.2385 0012430 180.3205 179.8048 15.62750157318607
JILIN-1 GAOFEN 3F       
1 46458U 20065E   26160.80874643  .00053575  00000+0  65452-3 0  9994
2 46458  97.2213 210.6215 0014058 169.5119 190.6434 15.60155302318557
JILIN-1 GAOFEN 3G       
1 46459U 20065F   26160.69327772  .00089049  00000+0  73849-3 0  9992
2 46459  97.2284 217.1861 0009917  88.7613 271.4786 15.69876406318769
JILIN-1 GAOFEN 3H       
1 46460U 20065G   26160.84064551  .00073672  00000+0  69737-3 0  9990
2 46460  97.2227 213.7092 0004634  29.6056 330.5467 15.66724316318731
HAIYANG-2C              
1 46469U 20066A   26160.93631157 -.00000086  00000+0 -40559-5 0  9996
2 46469  65.9968 233.3369 0009197 238.3369 121.6803 13.83374679288496
HJ-2A                   
1 46478U 20067A   26160.03299753  .00000302  00000+0  50437-4 0  9994
2 46478  97.8822 238.5982 0002212 312.3940  47.7082 14.76600903307052
HJ-2B                   
1 46479U 20067B   26160.95107992  .00000456  00000+0  72518-4 0  9993
2 46479  97.8885 240.5101 0001163  93.0422 267.0921 14.76548906307198
GONETS-M 17             
1 46486U 20068A   26160.88412056  .00000068  00000+0  41713-3 0  9995
2 46486  82.4996 352.0471 0023329  52.7274 307.5929 12.42872933258254
GONETS-M 18             
1 46487U 20068B   26160.92827584  .00000069  00000+0  42517-3 0  9991
2 46487  82.4950 351.1403 0020578  49.3302 310.9562 12.42873011258245
